KOREASAT 6              
1 37265U 10070B   18307.91284486 -.00000378  00000-0  00000-0 0  9991
2 37265   0.0579  83.2525 0001398 141.6707 262.8446  1.00270704 28887
INTELSAT NEW DAWN       
1 37392U 11016A   18308.50743659  .00000141  00000-0  00000+0 0  9997
2 37392   0.0159 216.4072 0001141  47.0804 355.7222  1.00273360 27628
YAHSAT 1A               
1 37393U 11016B   18307.92570715  .00000085  00000-0  00000-0 0  9992
2 37393   0.0201 258.4984 0002414 340.2936 190.0896  1.00272034 14500
TELSTAR 14R             
1 37602U 11021A   18307.87913118 -.00000295  00000-0  00000-0 0  9997
2 37602   0.0203 356.5255 0001116 292.1566   7.9200  1.00270924 27930
GSAT-8                  
1 37605U 11022A   18308.50257718  .00000070  00000-0  00000+0 0  9998
2 37605   0.0183 250.2721 0007951   1.2719  28.1454  1.00270637 27342
ST-2                    
1 37606U 11022B   18308.48350191 -.00000226  00000-0  00000+0 0  9999
2 37606   0.0410  88.3560 0001969 159.0137  58.4010  1.00271073 27356
CHINASAT 10 (ZX 10)     
1 37677U 11026A   18308.18258061 -.00000367  00000-0  00000+0 0  9997
2 37677   0.0447 257.0739 0004674 303.0922  19.4749  1.00269704 27079
TIANLIAN 1-02           
1 37737U 11032A   18308.00407616  .00000016  00000-0  00000+0 0  9994
2 37737   2.8155  76.1335 0007530 162.5059 342.8632  1.00271138 26827
GSAT-12                 
1 37746U 11034A   18307.91092951 -.00000181  00000-0  00000-0 0  9992
2 37746   0.0960  98.9035 0007928 343.1657  11.9864  1.00271673 15577
SES-3                   
1 37748U 11035A   18308.38729859 -.00000117  00000-0  00000+0 0  9999
2 37748   0.0428  61.8637 0002205 155.5829 222.5846  1.00271921 26808
KAZSAT-2                
1 37749U 11035B   18307.91349451 -.00000214  00000-0  00000-0 0  9993
2 37749   0.0221 277.4763 0000938  31.2436 149.7868  1.00273116 25508
ASTRA 1N                
1 37775U 11041A   18307.90952007  .00000105  00000-0  00000-0 0  9993
2 37775   0.0531  55.5138 0000325 186.3921 147.8655  1.00273143 16629
BSAT-3C (JCSAT-110R)    
1 37776U 11041B   18308.48638081 -.00000366  00000-0  00000+0 0  9990
2 37776   0.0041  33.7473 0000137 359.4930 295.5366  1.00272155 26623
PAKSAT-1R               
1 37779U 11042A   18307.88104995  .00000138  00000-0  00000+0 0  9995
2 37779   0.0509  69.1822 0002703 148.6428 180.4460  1.00267519 26385
CHINASAT 1A (ZX 1A)     
1 37804U 11047A   18305.81159361 -.00000352  00000-0  00000-0 0  9997
2 37804   0.0217 302.3098 0003296 349.3193 171.4249  1.00269042 26168
COSMOS 2473             
1 37806U 11048A   18308.19045233 -.00000123  00000-0  00000+0 0  9991
2 37806   0.0662  97.4513 0003800 165.4756 195.5472  1.00271548 26171
SES-2                   
1 37809U 11049A   18308.52996927 -.00000211  00000-0  00000+0 0  9995
2 37809   0.0266 105.3865 0002328 130.4190 271.7282  1.00271169 26110
ARABSAT-5C              
1 37810U 11049B   18308.46854872  .00000108  00000-0  00000+0 0  9996
2 37810   0.0660 351.4651 0003273 224.6422  16.2657  1.00273280 26014
EUTELSAT 7 WEST A       
1 37816U 11051A   18307.90047522 -.00000075  00000-0  00000+0 0  9993
2 37816   0.0832  52.8494 0006996 153.8302 153.3090  1.00272036 26071
QUETZSAT 1              
1 37826U 11054A   18308.51135253 -.00000257  00000-0  00000+0 0  9996
2 37826   0.0498  69.9886 0002466 160.8956 279.9222  1.00270318 26203
INTELSAT 18 (IS-18)     
1 37834U 11056A   18307.95513755  .00000038  00000-0  00000-0 0  9998
2 37834   0.0191 263.6762 0001773 324.6479 338.7102  1.00272075 26043
EUTELSAT 16A            
1 37836U 11057A   18307.89483365  .00000089  00000-0  00000-0 0  9993
2 37836   0.0700  21.8331 0004518 203.9428 155.4887  1.00273463 18092
VIASAT-1                
1 37843U 11059A   18308.23811111 -.00000039  00000-0  00000+0 0  9991
2 37843   0.0230 262.4115 0002365 317.7359 153.9042  1.00270752 26381
ASIASAT 7               
1 37933U 11069A   18307.91301108 -.00000349  00000-0  00000-0 0  9991
2 37933   0.0542  90.3440 0000894  93.2985 293.6818  1.00270085 16967
LUCH 5A                 
1 37951U 11074B   18307.85313486 -.00000058  00000-0  00000+0 0  9998
2 37951   2.0684 140.0999 0002760 120.7416 256.3886  1.00268725 25292
NIGCOMSAT 1R            
1 38014U 11077A   18308.18724854  .00000130  00000-0  00000+0 0  9994
2 38014   0.0181 251.8196 0002846 107.5916 153.8410  1.00269541 25130
FENGYUN 2F              
1 38049U 12002A   18307.15580971 -.00000370  00000-0  00000-0 0  9995
2 38049   2.7479  77.6969 0004067 242.8436 249.6984  1.00261514 24980
SES-4                   
1 38087U 12007A   18308.17442486 -.00000183  00000-0  00000+0 0  9994
2 38087   0.0217 323.1002 0002359 275.2407 205.8510  1.00270884 24596
BEIDOU 11               
1 38091U 12008A   18307.90338275  .00000042  00000-0  00000-0 0  9994
2 38091   1.6833  66.0040 0002777 266.8480  94.1443  1.00273571 24587
INTELSAT 22 (IS-22)     
1 38098U 12011A   18307.68053675 -.00000075  00000-0  00000-0 0  9995
2 38098   0.0225 115.3008 0002709 102.7678 141.9372  1.00272301 23936
APSTAR 7                
1 38107U 12013A   18307.82543076 -.00000118  00000-0  00000-0 0  9991
2 38107   0.0064 312.7245 0002867 270.5668 193.4238  1.00271778 24270
YAHSAT 1B               
1 38245U 12016A   18307.74843041  .00000111  00000-0  00000+0 0  9994
2 38245   0.0151 259.0640 0002415  47.1541  53.7848  1.00271651 24027
JCSAT-13                
1 38331U 12023A   18307.53680032 -.00000372  00000-0  00000+0 0  9994
2 38331   0.0118 246.9564 0002245 313.2602 159.7995  1.00272632 23672
VINASAT-2               
1 38332U 12023B   18308.20513191 -.00000344  00000-0  00000+0 0  9990
2 38332   0.0166 295.8207 0001902 280.9555  32.3391  1.00272085 23712
NIMIQ 6                 
1 38342U 12026A   18308.13264520 -.00000189  00000-0  00000+0 0  9992
2 38342   0.0114 102.5804 0001820 130.2424 127.1605  1.00269617 23701
CHINASAT 2A (ZX 2A)     
1 38352U 12028A   18307.91123400 -.00000308  00000-0  00000-0 0  9995
2 38352   0.0174 304.1819 0003180  14.4171 150.8172  1.00269771 23744
INTELSAT 19 (IS-19)     
1 38356U 12030A   18308.41766458 -.00000072  00000-0  00000+0 0  9991
2 38356   0.0243   3.6277 0002738 219.4607 136.9148  1.00270150 23621
ECHOSTAR 17             
1 38551U 12035A   18307.17973004 -.00000091  00000-0  00000+0 0  9993
2 38551   0.0190 247.3526 0002001 329.7069 142.9267  1.00271070 23220
METEOSAT-10 (MSG-3)     
1 38552U 12035B   18307.84619192  .00000043  00000-0  00000+0 0  9999
2 38552   1.0120 357.9752 0001327 296.7484  62.1520  1.00270015 23322
SES-5                   
1 38652U 12036A   18308.49632765  .00000019  00000-0  00000+0 0  9997
2 38652   0.0250 258.7730 0001878 324.0914   4.4986  1.00271503 23175
TIANLIAN 1-03           
1 38730U 12040A   18306.52980589  .00000057  00000-0  00000-0 0  9994
2 38730   0.0568 267.0903 0004789 258.8809  77.1418  1.00270731 23078
INTELSAT 20 (IS-20)     
1 38740U 12043A   18307.69056565 -.00000040  00000-0  00000+0 0  9997
2 38740   0.0102 234.1139 0003298 312.6960 173.2105  1.00272096 22931
HYLAS 2                 
1 38741U 12043B   18307.79442209  .00000139  00000-0  00000+0 0  9991
2 38741   0.0396  90.9200 0001644 119.5984 149.4969  1.00272228 22959
INTELSAT 21 (IS-21)     
1 38749U 12045A   18307.04368507 -.00000300  00000-0  00000+0 0  9998
2 38749   0.0153 268.7090 0001970 312.4805 138.8211  1.00272135 22733
ASTRA 2F                
1 38778U 12051A   18307.80214081  .00000134  00000-0  00000-0 0  9993
2 38778   0.0490 215.2317 0004348  14.5228 130.2324  1.00272283 13262
GSAT-10                 
1 38779U 12051B   18307.65043302 -.00000181  00000-0  00000-0 0  9996
2 38779   0.1190  96.8415 0000780 137.5667 125.6096  1.00271077 22211
INTELSAT 23 (IS-23)     
1 38867U 12057A   18307.02980556 -.00000300  00000-0  00000-0 0  9995
2 38867   0.0145 204.9640 0001856  28.5005 126.5440  1.00271186 22102
BEIDOU 16               
1 38953U 12059A   18307.91701139 -.00000189  00000-0  00000-0 0  9994
2 38953   1.3795  82.4977 0007688 189.6429 185.0996  1.00269707 22150
LUCH 5B                 
1 38977U 12061A   18307.12589719 -.00000144  00000-0  00000+0 0  9994
2 38977   4.5448  71.2616 0001374 219.5584 140.5997  1.00271160 22279
YAMAL 300K              
1 38978U 12061B   18308.53081368  .00000056  00000-0  00000+0 0  9999
2 38978   0.0066 226.1551 0000247  60.6170 131.0033  1.00270563 21989
STAR ONE C3             
1 38991U 12062A   18307.87668858 -.00000264  00000-0  00000-0 0  9999
2 38991   0.0527  87.6756 0002073 151.2852  44.7707  1.00272987 21874
EUTELSAT 21B            
1 38992U 12062B   18307.82049029  .00000115  00000-0  00000+0 0  9991
2 38992   0.0700  21.4496 0002277 199.8325 138.7254  1.00273419 21977
ECHOSTAR 16             
1 39008U 12065A   18308.05068610 -.00000297  00000-0  00000+0 0  9998
2 39008   0.0196 255.4571 0001723 325.6613 138.8687  1.00270288 21918
CHINASAT 12 (ZX 12)     
1 39017U 12067A   18308.10188309 -.00000222  00000-0  00000+0 0  9992
2 39017   0.0119  72.4044 0002825 153.4662 301.6361  1.00271295 21817
EUTELSAT 70B            
1 39020U 12069A   18307.68493950 -.00000060  00000-0  00000-0 0  9992
2 39020   0.0700  36.8566 0003645 184.4554 138.6853  1.00272862 21618
YAMAL 402               
1 39022U 12070A   18308.11798319  .00000070  00000-0  00000+0 0  9991
2 39022   0.0119 285.6569 0003077 313.6423 261.4103  1.00272044 21706
SKYNET 5D               
1 39034U 12075A   18307.92570715  .00000083  00000-0  00000-0 0  9990
2 39034   0.0758  12.2557 0003959 211.4278 205.4599  1.00272385 21278
MEXSAT 3                
1 39035U 12075B   18307.20104990 -.00000041  00000-0  00000-0 0  9995
2 39035   0.0309 135.0458 0002378  88.7371 136.2236  1.00271833 21285
TDRS 11                 
1 39070U 13004A   18308.27613281  .00000056  00000-0  00000+0 0  9997
2 39070   4.7014 328.9230 0003727 263.2973  96.4510  1.00266191 21098
